start=new Date('2022-07-22T00:00:00.000Z').valueOf();
sats=[{"EPHEMERIS_TYPE":"0","CLASSIFICATION_TYPE":"U","OBJECT_ID":"2020-070AU","COUNTRY_CODE":"US","SITE":"AFETR","BSTAR":"0.00092139000000","EPOCH":"2022-07-21T20:42:51.886656","APOAPSIS":"548.277","PERIOD":"95.592","MEAN_ANOMALY":"282.8052","PERIAPSIS":"546.168","MEAN_ELEMENT_THEORY":"SGP4","TLE_LINE1":"1 46574U 20070AU  22202.86310054  .00013468  00000-0  92139-3 0  9999","GP_ID":"208601966","ELEMENT_SET_NO":"999","TIME_SYSTEM":"UTC","NORAD_CAT_ID":"46574","ECCENTRICITY":"0.00015230","REF_FRAME":"TEME","RA_OF_ASC_NODE":"357.9818","SEMIMAJOR_AXIS":"6925.358","OBJECT_TYPE":"PAYLOAD","MEAN_MOTION_DDOT":"0.0000000000000","OBJECT_NAME":"STARLINK-1660","DECAY_DATE":null,"CENTER_NAME":"EARTH","MEAN_MOTION_DOT":"0.00013468","LAUNCH_DATE":"2020-10-06","MEAN_MOTION":"15.06396997","REV_AT_EPOCH":"9973","ARG_OF_PERICENTER":"77.3108","TLE_LINE2":"2 46574  53.0559 357.9818 0001523  77.3108 282.8052 15.06396997 99733","FILE":"3519265","RCS_SIZE":"LARGE","INCLINATION":"53.0559"},{"FILE":"3519222","TLE_LINE2":"2 46575  53.0567 333.3307 0001564  69.4665 290.6492 15.06375727100072","INCLINATION":"53.0567","RCS_SIZE":"LARGE","REV_AT_EPOCH":"10007","ARG_OF_PERICENTER":"69.4665","MEAN_MOTION_DDOT":"0.0000000000000","OBJECT_NAME":"STARLINK-1675","OBJECT_TYPE":"PAYLOAD","MEAN_MOTION_DOT":"-0.00003794","LAUNCH_DATE":"2020-10-06","MEAN_MOTION":"15.06375727","DECAY_DATE":null,"CENTER_NAME":"EARTH","REF_FRAME":"TEME","RA_OF_ASC_NODE":"333.3307","SEMIMAJOR_AXIS":"6925.423","ECCENTRICITY":"0.00015640","ELEMENT_SET_NO":"999","NORAD_CAT_ID":"46575","TIME_SYSTEM":"UTC","GP_ID":"208581416","MEAN_ELEMENT_THEORY":"SGP4","TLE_LINE1":"1 46575U 20070AV  22202.78616941 -.00003794  00000-0 -23608-3 0  9993","BSTAR":"-0.00023608000000","EPOCH":"2022-07-21T18:52:05.037024","SITE":"AFETR","MEAN_ANOMALY":"290.6492","PERIAPSIS":"546.205","APOAPSIS":"548.371","PERIOD":"95.594","CLASSIFICATION_TYPE":"U","OBJECT_ID":"2020-070AV","COUNTRY_CODE":"US","EPHEMERIS_TYPE":"0"},{"GP_ID":"208581947","ECCENTRICITY":"0.00015200","ELEMENT_SET_NO":"999","NORAD_CAT_ID":"46576","TIME_SYSTEM":"UTC","MEAN_ELEMENT_THEORY":"SGP4","TLE_LINE1":"1 46576U 20070AW  22202.85573293 -.00002592  00000-0 -15522-3 0  9995","SITE":"AFETR","EPOCH":"2022-07-21T20:32:15.325152","BSTAR":"-0.00015522000000","PERIOD":"95.593","APOAPSIS":"548.289","PERIAPSIS":"546.183","MEAN_ANOMALY":"285.4605","EPHEMERIS_TYPE":"0","COUNTRY_CODE":"US","CLASSIFICATION_TYPE":"U","OBJECT_ID":"2020-070AW","TLE_LINE2":"2 46576  53.0568 358.0028 0001520  74.6552 285.4605 15.06392700 99731","FILE":"3519224","RCS_SIZE":"LARGE","INCLINATION":"53.0568","REV_AT_EPOCH":"9973","ARG_OF_PERICENTER":"74.6552","OBJECT_TYPE":"PAYLOAD","OBJECT_NAME":"STARLINK-1677","MEAN_MOTION_DDOT":"0.0000000000000","CENTER_NAME":"EARTH","DECAY_DATE":null,"MEAN_MOTION":"15.06392700","LAUNCH_DATE":"2020-10-06","MEAN_MOTION_DOT":"-0.00002592","SEMIMAJOR_AXIS":"6925.371","REF_FRAME":"TEME","RA_OF_ASC_NODE":"358.0028"},{"EPHEMERIS_TYPE":"0","CLASSIFICATION_TYPE":"U","OBJECT_ID":"2020-070AX","COUNTRY_CODE":"US","APOAPSIS":"548.209","PERIOD":"95.593","MEAN_ANOMALY":"283.3487","PERIAPSIS":"546.347","SITE":"AFETR","EPOCH":"2022-07-21T19:39:11.266560","BSTAR":"-0.00012863000000","TLE_LINE1":"1 46577U 20070AX  22202.81888040 -.00002196  00000-0 -12863-3 0  9996","MEAN_ELEMENT_THEORY":"SGP4","GP_ID":"208601716","NORAD_CAT_ID":"46577","ELEMENT_SET_NO":"999","TIME_SYSTEM":"UTC","ECCENTRICITY":"0.00013440","RA_OF_ASC_NODE":"358.1731","REF_FRAME":"TEME","SEMIMAJOR_AXIS":"6925.413","DECAY_DATE":null,"CENTER_NAME":"EARTH","MEAN_MOTION_DOT":"-0.00002196","MEAN_MOTION":"15.06378934","LAUNCH_DATE":"2020-10-06","OBJECT_TYPE":"PAYLOAD","MEAN_MOTION_DDOT":"0.0000000000000","OBJECT_NAME":"STARLINK-1682","ARG_OF_PERICENTER":"76.7652","REV_AT_EPOCH":"9972","RCS_SIZE":"LARGE","INCLINATION":"53.0546","TLE_LINE2":"2 46577  53.0546 358.1731 0001344  76.7652 283.3487 15.06378934 99725","FILE":"3519265"},{"NORAD_CAT_ID":"46578","ELEMENT_SET_NO":"999","ECCENTRICITY":"0.00015160","TIME_SYSTEM":"UTC","GP_ID":"208602466","MEAN_ELEMENT_THEORY":"SGP4","TLE_LINE1":"1 46578U 20070AY  22202.73362696 -.00001413  00000-0 -75965-4 0  9996","BSTAR":"-0.00007596500000","EPOCH":"2022-07-21T17:36:25.369344","SITE":"AFETR","MEAN_ANOMALY":"274.4828","PERIAPSIS":"546.170","APOAPSIS":"548.270","PERIOD":"95.592","CLASSIFICATION_TYPE":"U","OBJECT_ID":"2020-070AY","COUNTRY_CODE":"US","EPHEMERIS_TYPE":"0","FILE":"3519265","TLE_LINE2":"2 46578  53.0554 343.6112 0001516  85.6335 274.4828 15.06397977 99925","INCLINATION":"53.0554","RCS_SIZE":"LARGE","REV_AT_EPOCH":"9992","ARG_OF_PERICENTER":"85.6335","MEAN_MOTION_DDOT":"0.0000000000000","OBJECT_NAME":"STARLINK-1683","OBJECT_TYPE":"PAYLOAD","MEAN_MOTION_DOT":"-0.00001413","LAUNCH_DATE":"2020-10-06","MEAN_MOTION":"15.06397977","DECAY_DATE":null,"CENTER_NAME":"EARTH","RA_OF_ASC_NODE":"343.6112","REF_FRAME":"TEME","SEMIMAJOR_AXIS":"6925.355"},{"SEMIMAJOR_AXIS":"6925.376","RA_OF_ASC_NODE":"358.2391","REF_FRAME":"TEME","OBJECT_NAME":"STARLINK-1705","MEAN_MOTION_DDOT":"0.0000000000000","OBJECT_TYPE":"PAYLOAD","LAUNCH_DATE":"2020-10-06","MEAN_MOTION":"15.06391025","MEAN_MOTION_DOT":"-0.00002447","CENTER_NAME":"EARTH","DECAY_DATE":null,"REV_AT_EPOCH":"9972","ARG_OF_PERICENTER":"81.2901","FILE":"3519265","TLE_LINE2":"2 46579  53.0548 358.2391 0001304  81.2901 278.8236 15.06391025 99723","INCLINATION":"53.0548","RCS_SIZE":"LARGE","COUNTRY_CODE":"US","CLASSIFICATION_TYPE":"U","OBJECT_ID":"2020-070AZ","EPHEMERIS_TYPE":"0","BSTAR":"-0.00014547000000","EPOCH":"2022-07-21T19:17:56.344704","SITE":"AFETR","PERIAPSIS":"546.338","MEAN_ANOMALY":"278.8236","PERIOD":"95.593","APOAPSIS":"548.144","MEAN_ELEMENT_THEORY":"SGP4","TLE_LINE1":"1 46579U 20070AZ  22202.80412436 -.00002447  00000-0 -14547-3 0  9999","ELEMENT_SET_NO":"999","NORAD_CAT_ID":"46579","ECCENTRICITY":"0.00013040","TIME_SYSTEM":"UTC","GP_ID":"208602709"},{"RCS_SIZE":"LARGE","INCLINATION":"53.0563","TLE_LINE2":"2 46580  53.0563 358.0374 0001451  68.6533 291.4610 15.06382590 99739","FILE":"3519265","ARG_OF_PERICENTER":"68.6533","REV_AT_EPOCH":"9973","CENTER_NAME":"EARTH","DECAY_DATE":null,"MEAN_MOTION":"15.06382590","LAUNCH_DATE":"2020-10-06","MEAN_MOTION_DOT":"-0.00003207","OBJECT_TYPE":"PAYLOAD","OBJECT_NAME":"STARLINK-1708","MEAN_MOTION_DDOT":"0.0000000000000","SEMIMAJOR_AXIS":"6925.402","RA_OF_ASC_NODE":"358.0374","REF_FRAME":"TEME","GP_ID":"208602956","TIME_SYSTEM":"UTC","ELEMENT_SET_NO":"999","NORAD_CAT_ID":"46580","ECCENTRICITY":"0.00014510","TLE_LINE1":"1 46580U 20070BA  22202.84836783 -.00003207  00000-0 -19661-3 0  9997","MEAN_ELEMENT_THEORY":"SGP4","PERIOD":"95.593","APOAPSIS":"548.272","PERIAPSIS":"546.262","MEAN_ANOMALY":"291.4610","SITE":"AFETR","BSTAR":"-0.00019661000000","EPOCH":"2022-07-21T20:21:38.980512","EPHEMERIS_TYPE":"0","COUNTRY_CODE":"US","CLASSIFICATION_TYPE":"U","OBJECT_ID":"2020-070BA"},{"RA_OF_ASC_NODE":"353.5085","REF_FRAME":"TEME","SEMIMAJOR_AXIS":"6925.375","MEAN_MOTION_DOT":"-0.00001900","LAUNCH_DATE":"2020-10-06","MEAN_MOTION":"15.06391459","DECAY_DATE":null,"CENTER_NAME":"EARTH","MEAN_MOTION_DDOT":"0.0000000000000","OBJECT_NAME":"STARLINK-1712","OBJECT_TYPE":"PAYLOAD","ARG_OF_PERICENTER":"83.5909","REV_AT_EPOCH":"9978","INCLINATION":"53.0550","RCS_SIZE":"LARGE","FILE":"3519265","TLE_LINE2":"2 46581  53.0550 353.5085 0001483  83.5909 276.5249 15.06391459 99784","CLASSIFICATION_TYPE":"U","OBJECT_ID":"2020-070BB","COUNTRY_CODE":"US","EPHEMERIS_TYPE":"0","MEAN_ANOMALY":"276.5249","PERIAPSIS":"546.213","APOAPSIS":"548.267","PERIOD":"95.593","EPOCH":"2022-07-21T17:56:20.654592","BSTAR":"-0.00010874000000","SITE":"AFETR","TLE_LINE1":"1 46581U 20070BB  22202.74746128 -.00001900  00000-0 -10874-3 0  9995","MEAN_ELEMENT_THEORY":"SGP4","NORAD_CAT_ID":"46581","ELEMENT_SET_NO":"999","TIME_SYSTEM":"UTC","ECCENTRICITY":"0.00014830","GP_ID":"208601216"},{"DECAY_DATE":null,"CENTER_NAME":"EARTH","MEAN_MOTION_DOT":"-0.00001473","MEAN_MOTION":"15.06388154","LAUNCH_DATE":"2020-10-06","OBJECT_TYPE":"PAYLOAD","MEAN_MOTION_DDOT":"0.0000000000000","OBJECT_NAME":"STARLINK-1728","RA_OF_ASC_NODE":"353.5700","REF_FRAME":"TEME","SEMIMAJOR_AXIS":"6925.385","RCS_SIZE":"LARGE","INCLINATION":"53.0549","TLE_LINE2":"2 46582  53.0549 353.5700 0001356  88.9574 271.1570 15.06388154 99789","FILE":"3519265","ARG_OF_PERICENTER":"88.9574","REV_AT_EPOCH":"9978","APOAPSIS":"548.189","PERIOD":"95.593","MEAN_ANOMALY":"271.1570","PERIAPSIS":"546.311","SITE":"AFETR","BSTAR":"-0.00008004300000","EPOCH":"2022-07-21T17:35:06.853344","EPHEMERIS_TYPE":"0","CLASSIFICATION_TYPE":"U","OBJECT_ID":"2020-070BC","COUNTRY_CODE":"US","GP_ID":"208601967","ELEMENT_SET_NO":"999","TIME_SYSTEM":"UTC","NORAD_CAT_ID":"46582","ECCENTRICITY":"0.00013560","TLE_LINE1":"1 46582U 20070BC  22202.73271821 -.00001473  00000-0 -80043-4 0  9999","MEAN_ELEMENT_THEORY":"SGP4"},{"TLE_LINE1":"1 46583U 20070BD  22202.84882875 -.00001650  00000-0 -91918-4 0  9999","MEAN_ELEMENT_THEORY":"SGP4","TIME_SYSTEM":"UTC","ELEMENT_SET_NO":"999","NORAD_CAT_ID":"46583","ECCENTRICITY":"0.00013580","GP_ID":"208602210","OBJECT_ID":"2020-070BD","CLASSIFICATION_TYPE":"U","COUNTRY_CODE":"US","EPHEMERIS_TYPE":"0","MEAN_ANOMALY":"272.9941","PERIAPSIS":"546.320","APOAPSIS":"548.200","PERIOD":"95.593","EPOCH":"2022-07-21T20:22:18.804000","BSTAR":"-0.00009191800000","SITE":"AFETR","ARG_OF_PERICENTER":"87.1203","REV_AT_EPOCH":"9951","INCLINATION":"53.0573","RCS_SIZE":"LARGE","FILE":"3519265","TLE_LINE2":"2 46583  53.0573  13.0442 0001358  87.1203 272.9941 15.06384838 99517","RA_OF_ASC_NODE":"13.0442","REF_FRAME":"TEME","SEMIMAJOR_AXIS":"6925.395","MEAN_MOTION_DOT":"-0.00001650","MEAN_MOTION":"15.06384838","LAUNCH_DATE":"2020-10-06","DECAY_DATE":null,"CENTER_NAME":"EARTH","MEAN_MOTION_DDOT":"0.0000000000000","OBJECT_NAME":"STARLINK-1729","OBJECT_TYPE":"PAYLOAD"}];
